{
    "links": {
        "self": "http://www.neowsapp.com/rest/v1/neo/3638508?api_key=iIulBulltgU6a56xZRHN4H3l9WmuAYTsLGpBGhQ2"
    },
    "id": "3638508",
    "neo_reference_id": "3638508",
    "name": "(2013 KB)",
    "designation": "2013 KB",
    "nasa_jpl_url": "http://ssd.jpl.nasa.gov/sbdb.cgi?sstr=3638508",
    "absolute_magnitude_h": 27.2,
    "estimated_diameter": {
        "kilometers": {
            "estimated_diameter_min": 0.0096506147,
            "estimated_diameter_max": 0.0215794305
        },
        "meters": {
            "estimated_diameter_min": 9.6506146958,
            "estimated_diameter_max": 21.5794304844
        },
        "miles": {
            "estimated_diameter_min": 0.0059966121,
            "estimated_diameter_max": 0.0134088323
        },
        "feet": {
            "estimated_diameter_min": 31.6621227185,
            "estimated_diameter_max": 70.7986587106
        }
    },
    "is_potentially_hazardous_asteroid": false,
    "close_approach_data": [
        {
            "close_approach_date": "1957-07-03",
            "close_approach_date_full": "1957-Jul-03 07:08",
            "epoch_date_close_approach": -394390320000,
            "relative_velocity": {
                "kilometers_per_second": "11.6647993778",
                "kilometers_per_hour": "41993.2777600955",
                "miles_per_hour": "26092.9897282104"
            },
            "miss_distance": {
                "astronomical": "0.0351611996",
                "lunar": "13.6777066444",
                "kilometers": "5260040.566804852",
                "miles": "3268437.6487448776"
            },
            "orbiting_body": "Mars"
        },
        {
            "close_approach_date": "2013-05-21",
            "close_approach_date_full": "2013-May-21 20:03",
            "epoch_date_close_approach": 1369166580000,
            "relative_velocity": {
                "kilometers_per_second": "6.284015307",
                "kilometers_per_hour": "22622.455105066",
                "miles_per_hour": "14056.713840145"
            },
            "miss_distance": {
                "astronomical": "0.0067667336",
                "lunar": "2.6322593704",
                "kilometers": "1012288.933417432",
                "miles": "629007.1757752816"
            },
            "orbiting_body": "Moon"
        },
        {
            "close_approach_date": "2013-05-22",
            "close_approach_date_full": "2013-May-22 06:03",
            "epoch_date_close_approach": 1369202580000,
            "relative_velocity": {
                "kilometers_per_second": "6.7626254101",
                "kilometers_per_hour": "24345.4514765097",
                "miles_per_hour": "15127.3167799457"
            },
            "miss_distance": {
                "astronomical": "0.008124137",
                "lunar": "3.160289293",
                "kilometers": "1215353.59078819",
                "miles": "755185.702889422"
            },
            "orbiting_body": "Earth"
        }
    ],
    "orbital_data": {
        "orbit_id": "5",
        "orbit_determination_date": "2017-04-06 08:45:47",
        "first_observation_date": "2013-05-16",
        "last_observation_date": "2013-05-17",
        "data_arc_in_days": 1,
        "observations_used": 15,
        "orbit_uncertainty": "8",
        "minimum_orbit_intersection": ".00815142",
        "jupiter_tisserand_invariant": "3.785",
        "epoch_osculation": "2456429.5",
        "eccentricity": ".4697152090697234",
        "semi_major_axis": "1.916999170372429",
        "inclination": "3.00375961405185",
        "ascending_node_longitude": "55.11793345514045",
        "orbital_period": "969.4631687084031",
        "perihelion_distance": "1.016555504274457",
        "perihelion_argument": "191.8180901424404",
        "aphelion_distance": "2.8174428364704",
        "perihelion_time": "2456439.740538792730",
        "mean_anomaly": "356.1972831105132",
        "mean_motion": ".3713395326607621",
        "equinox": "J2000",
        "orbit_class": {
            "orbit_class_type": "APO",
            "orbit_class_description": "Near-Earth asteroid orbits which cross the Earth’s orbit similar to that of 1862 Apollo",
            "orbit_class_range": "a (semi-major axis) > 1.0 AU; q (perihelion) < 1.017 AU"
        }
    },
    "is_sentry_object": false
}